ONEWEB-0512             
1 54130U 22138T   24338.79478559  .00000116  00000+0  25810-3 0  9999
2 54130  87.9189  56.4170 0001799  85.3798 274.7540 13.19724669103760
ONEWEB-0513             
1 54131U 22138U   24338.76554687 -.00000425  00000+0 -10933-2 0  9998
2 54131  87.9188  56.4132 0002004  86.0778 274.0584 13.19724206103649
ONEWEB-0514             
1 54132U 22138V   24338.58312580  .00000039  00000+0  65125-4 0  9997
2 54132  87.9185  56.4387 0001811 102.1866 257.9469 13.19724338102885
ONEWEB-0515             
1 54133U 22138W   24338.59437007  .00000000  00000+0 -31596-4 0  9995
2 54133  87.9267  25.9426 0001504 131.4443 228.6820 13.20770054105301
ONEWEB-0516             
1 54134U 22138X   24338.48201170  .00000191  00000+0  44480-3 0  9999
2 54134  87.9276  56.4848 0002093  92.6246 267.5126 13.19736652102876
ONEWEB-0517             
1 54135U 22138Y   24338.61314337  .00000040  00000+0  66587-4 0  9991
2 54135  87.9184  56.4283 0002125  99.5205 260.6168 13.19726308102894
ONEWEB-0518             
1 54136U 22138Z   24338.48045825  .00000125  00000+0  28106-3 0  9998
2 54136  87.9192  56.4786 0001848  99.4649 260.6692 13.19725292102875
ONEWEB-0519             
1 54137U 22138AA  24338.58155428  .00000169  00000+0  38958-3 0  9995
2 54137  87.9185  56.4290 0002084  99.1539 260.9829 13.19726529102897
